NORAD_CAT_ID,OBJECT_NAME,OBJECT_TYPE,EPOCH,MEAN_MOTION,ECCENTRICITY,INCLINATION,RA_OF_ASC_NODE,ARG_OF_PERICENTER,MEAN_ANOMALY,BSTAR,MEAN_MOTION_DOT,MEAN_MOTION_DDOT,TLE_LINE0,TLE_LINE1,TLE_LINE2,SEMIMAJOR_AXIS,PERIOD,APOGEE,PERIGEE,DECAYED
55653.0,STARLINK-5067,PAYLOAD,2024-05-06 22:31:16,14.98338294,0.0003089,69.9996,78.0153,263.7715,96.3093,0.00018007,2.057e-05,0.0,0 STARLINK-5067,1 55653U 23021AB  24127.93838553  .00002057  00000-0  18007-3 0  9995,2 55653  69.9996  78.0153 0003089 263.7715  96.3093 14.98338294 68172,6950.167,96.106,574.179,569.885,0.0
55653.0,STARLINK-5067,PAYLOAD,2024-05-07 04:55:48,14.98344301,0.0003065,69.9996,77.342,263.4981,96.5829,0.00020897,2.402e-05,0.0,0 STARLINK-5067,1 55653U 23021AB  24128.20541928  .00002402  00000-0  20897-3 0  9997,2 55653  69.9996  77.3420 0003065 263.4981  96.5829 14.98344301 67913,6950.149,96.106,574.144,569.883,0.0
55653.0,STARLINK-5067,PAYLOAD,2024-05-07 06:31:56,14.98345646,0.0003063,69.9996,77.1738,263.5386,96.5424,0.00021926,2.525e-05,0.0,0 STARLINK-5067,1 55653U 23021AB  24128.27217753  .00002525  00000-0  21926-3 0  9990,2 55653  69.9996  77.1738 0003063 263.5386  96.5424 14.98345646 68220,6950.145,96.106,574.138,569.881,0.0
55653.0,STARLINK-5067,PAYLOAD,2024-05-07 20:57:09,14.98331462,0.0002141,70.0028,75.6607,247.3119,112.7814,8.16e-05,8.81e-06,0.0,0 STARLINK-5067,1 55653U 23021AB  24128.87302658  .00000881  00000-0  81600-4 0  9994,2 55653  70.0028  75.6607 0002141 247.3119 112.7814 14.98331462 68019,6950.188,96.107,573.541,570.565,0.0
55653.0,STARLINK-5067,PAYLOAD,2024-05-07 22:33:17,14.98330418,0.0002328,70.0023,75.4934,249.9514,110.1394,2.0428e-05,1.51e-06,0.0,0 STARLINK-5067,1 55653U 23021AB  24128.93978869  .00000151  00000-0  20428-4 0  9995,2 55653  70.0023  75.4934 0002328 249.9514 110.1394 14.98330418 68328,6950.192,96.107,573.675,570.439,0.0
55653.0,STARLINK-5067,PAYLOAD,2024-05-08 04:57:50,14.98328245,0.0002819,70.0004,74.8181,266.3686,93.715,-0.0001733,-2.16e-05,0.0,0 STARLINK-5067,1 55653U 23021AB  24129.20683606 -.00002160  00000-0 -17330-3 0  9999,2 55653  70.0004  74.8181 0002819 266.3686  93.7150 14.98328245 68064,6950.198,96.107,574.023,570.104,0.0
55653.0,STARLINK-5067,PAYLOAD,2024-05-08 06:33:58,14.98328718,0.0002809,70.0004,74.6498,265.9089,94.1749,-0.00016396,-2.049e-05,0.0,0 STARLINK-5067,1 55653U 23021AB  24129.27359547 -.00002049  00000-0 -16396-3 0  9997,2 55653  70.0004  74.6498 0002809 265.9089  94.1749 14.98328718 68372,6950.197,96.107,574.014,570.11,0.0
55653.0,STARLINK-5067,PAYLOAD,2024-05-08 20:59:10,14.98337308,0.0002884,69.9999,73.1348,267.3287,92.7542,-9.0823e-05,-1.177e-05,0.0,0 STARLINK-5067,1 55653U 23021AB  24129.87442598 -.00001177  00000-0 -90823-4 0  9991,2 55653  69.9999  73.1348 0002884 267.3287  92.7542 14.98337308 68166,6950.17,96.107,574.04,570.031,0.0
55653.0,STARLINK-5067,PAYLOAD,2024-05-08 22:35:18,14.98337786,0.000287,70.0,72.9665,267.5026,92.5805,-8.4518e-05,-1.101e-05,0.0,0 STARLINK-5067,1 55653U 23021AB  24129.94118523 -.00001101  00000-0 -84518-4 0  9998,2 55653  70.0000  72.9665 0002870 267.5026  92.5805 14.98337786 68473,6950.169,96.106,574.029,570.039,0.0
55653.0,STARLINK-5067,PAYLOAD,2024-05-09 06:35:58,14.98343596,0.0002957,70.0001,72.1254,261.5784,98.504,-2.2192e-05,-3.58e-06,0.0,0 STARLINK-5067,1 55653U 23021AB  24130.27497767 -.00000358  00000-0 -22192-4 0  9999,2 55653  70.0001  72.1254 0002957 261.5784  98.5040 14.98343596 68227,6950.151,96.106,574.071,569.961,0.0
55653.0,STARLINK-5067,PAYLOAD,2024-05-09 13:00:31,14.98331938,0.000214,70.0025,71.4507,273.732,86.3595,-9.2959e-05,-1.202e-05,0.0,0 STARLINK-5067,1 55653U 23021AB  24130.54202831 -.00001202  00000-0 -92959-4 0  9992,2 55653  70.0025  71.4507 0002140 273.7320  86.3595 14.98331938 68565,6950.187,96.107,573.539,570.565,0.0
55653.0,STARLINK-5067,PAYLOAD,2024-05-09 21:01:11,14.98294086,0.0003433,70.0026,70.6115,269.8605,90.2161,0.00058544,6.893e-05,0.0,0 STARLINK-5067,1 55653U 23021AB  24130.87582748  .00006893  00000-0  58544-3 0  9996,2 55653  70.0026  70.6115 0003433 269.8605  90.2161 14.98294086 68318,6950.304,96.109,574.555,569.783,0.0
55653.0,STARLINK-5067,PAYLOAD,2024-05-09 22:37:19,14.98300225,0.0003432,70.0019,70.4436,268.4214,91.6552,0.00047593,5.586e-05,0.0,0 STARLINK-5067,1 55653U 23021AB  24130.94258843  .00005586  00000-0  47593-3 0  9990,2 55653  70.0019  70.4436 0003432 268.4214  91.6552 14.98300225 68620,6950.285,96.109,574.535,569.765,0.0
55653.0,STARLINK-5067,PAYLOAD,2024-05-10 03:25:43,14.98315066,0.0003395,70.0004,69.9366,273.4057,86.6713,0.0003089,3.593e-05,0.0,0 STARLINK-5067,1 55653U 23021AB  24131.14286684  .00003593  00000-0  30890-3 0  9995,2 55653  70.0004  69.9366 0003395 273.4057  86.6713 14.98315066 68350,6950.239,96.108,574.464,569.744,0.0
55653.0,STARLINK-5067,PAYLOAD,2024-05-10 13:02:31,14.98340295,0.0002843,70.0009,68.9271,267.6971,92.3862,-9.9858e-05,-1.285e-05,0.0,0 STARLINK-5067,1 55653U 23021AB  24131.54342099 -.00001285  00000-0 -99858-4 0  9990,2 55653  70.0009  68.9271 0002843 267.6971  92.3862 14.98340295 68414,6950.161,96.106,574.002,570.05,0.0
55653.0,STARLINK-5067,PAYLOAD,2024-05-10 22:39:20,14.98333143,0.0002703,70.0016,67.918,251.5803,108.5062,1.2649e-05,5.8e-07,0.0,0 STARLINK-5067,1 55653U 23021AB  24131.94398287  .00000058  00000-0  12649-4 0  9992,2 55653  70.0016  67.9180 0002703 251.5803 108.5062 14.98333143 68776,6950.183,96.107,573.927,570.17,0.0
55653.0,STARLINK-5067,PAYLOAD,2024-05-11 05:03:49,14.98364618,0.0002262,70.0019,67.2453,255.3308,104.7601,0.00035432,4.141e-05,0.0,0 STARLINK-5067,1 55653U 23021AB  24132.21099421  .00004141  00000-0  35432-3 0  9992,2 55653  70.0019  67.2453 0002262 255.3308 104.7601 14.98364618 68517,6950.086,96.105,573.523,570.379,0.0
55653.0,STARLINK-5067,PAYLOAD,2024-05-11 21:05:12,14.98324418,0.0002873,70.001,65.5614,268.3493,91.7337,-0.00010524,-1.348e-05,0.0,0 STARLINK-5067,1 55653U 23021AB  24132.87861944 -.00001348  00000-0 -10524-3 0  9994,2 55653  70.0010  65.5614 0002873 268.3493  91.7337 14.98324418 68611,6950.21,96.107,574.072,570.078,0.0
55653.0,STARLINK-5067,PAYLOAD,2024-05-11 22:41:23,14.98286795,0.0003896,70.0009,65.392,289.5422,70.5316,-0.00047772,-5.782e-05,0.0,0 STARLINK-5067,1 55653U 23021AB  24132.94541365 -.00005782  00000-0 -47772-3 0  9995,2 55653  70.0009  65.3920 0003896 289.5422  70.5316 14.98286795 68921,6950.327,96.11,574.899,569.484,0.0
55653.0,STARLINK-5067,PAYLOAD,2024-05-12 05:05:57,14.98280233,0.0002533,70.0007,64.7193,266.7531,93.3338,-0.00058057,-7.004e-05,0.0,0 STARLINK-5067,1 55653U 23021AB  24133.21246593 -.00007004  00000-0 -58057-3 0  9998,2 55653  70.0007  64.7193 0002533 266.7531  93.3338 14.98280233 68668,6950.347,96.11,573.972,570.451,0.0
55653.0,STARLINK-5067,PAYLOAD,2024-05-12 13:06:38,14.98274385,0.0002438,70.001,63.8754,266.5181,93.5699,-0.00065454,-7.882e-05,0.0,0 STARLINK-5067,1 55653U 23021AB  24133.54628156 -.00007882  00000-0 -65454-3 0  9996,2 55653  70.0010  63.8754 0002438 266.5181  93.5699 14.98274385 69011,6950.365,96.111,573.924,570.535,0.0
55653.0,STARLINK-5067,PAYLOAD,2024-05-12 21:07:17,14.98303297,0.000228,70.0038,63.0325,269.9393,90.1505,-0.00015939,-1.993e-05,0.0,0 STARLINK-5067,1 55653U 23021AB  24133.88005947 -.00001993  00000-0 -15939-3 0  9990,2 55653  70.0038  63.0325 0002280 269.9393  90.1505 14.98303297 68769,6950.275,96.109,573.725,570.556,0.0
55653.0,STARLINK-5067,PAYLOAD,2024-05-12 22:43:24,14.9831748,0.00025,70.0009,62.8678,260.8539,99.2337,-8.7165e-05,-1.132e-05,0.0,0 STARLINK-5067,1 55653U 23021AB  24133.94680893 -.00001132  00000-0 -87165-4 0  9992,2 55653  70.0009  62.8678 0002500 260.8539  99.2337 14.98317480 69079,6950.232,96.108,573.834,570.359,0.0
55653.0,STARLINK-5067,PAYLOAD,2024-05-13 05:07:56,14.98324403,0.0002852,70.0009,62.1942,270.936,89.1472,2.7614e-05,2.36e-06,0.0,0 STARLINK-5067,1 55653U 23021AB  24134.21384404  .00000236  00000-0  27614-4 0  9997,2 55653  70.0009  62.1942 0002852 270.9360  89.1472 14.98324403 68812,6950.21,96.107,574.057,570.093,0.0
55653.0,STARLINK-5067,PAYLOAD,2024-05-13 13:08:35,14.98334783,0.0002563,69.9998,61.3525,277.8062,82.2806,7.6976e-05,8.26e-06,0.0,0 STARLINK-5067,1 55653U 23021AB  24134.54763693  .00000826  00000-0  76976-4 0  9994,2 55653  69.9998  61.3525 0002563 277.8062  82.2806 14.98334783 69164,6950.178,96.107,573.824,570.262,0.0
55653.0,STARLINK-5067,PAYLOAD,2024-05-14 05:09:55,14.98316463,0.0002621,70.0003,59.669,269.7754,90.3104,0.0007708,9.113e-05,0.0,0 STARLINK-5067,1 55653U 23021AB  24135.21522876  .00009113  00000-0  77080-3 0  9999,2 55653  70.0003  59.6690 0002621 269.7754  90.3104 14.98316463 69267,6950.235,96.108,573.921,570.278,0.0
55653.0,STARLINK-5067,PAYLOAD,2024-05-14 22:47:24,14.983393,0.0002105,70.0023,57.8173,283.0821,77.0103,0.00037798,4.421e-05,0.0,0 STARLINK-5067,1 55653U 23021AB  24135.94959063  .00004421  00000-0  37798-3 0  9990,2 55653  70.0023  57.8173 0002105 283.0821  77.0103 14.98339300 69374,6950.164,96.106,573.492,570.566,0.0
55653.0,STARLINK-5067,PAYLOAD,2024-05-15 05:11:56,14.98349128,0.0001998,70.0027,57.1443,267.849,92.244,0.00033368,3.893e-05,0.0,0 STARLINK-5067,1 55653U 23021AB  24136.21662268  .00003893  00000-0  33368-3 0  9990,2 55653  70.0027  57.1443 0001998 267.8490  92.2440 14.98349128 69116,6950.134,96.106,573.387,570.61,0.0
55653.0,STARLINK-5067,PAYLOAD,2024-05-15 21:13:17,14.98341983,0.0002918,70.0017,55.4608,260.2548,99.8282,-0.00019794,-2.455e-05,0.0,0 STARLINK-5067,1 55653U 23021AB  24136.88423080 -.00002455  00000-0 -19794-3 0  9992,2 55653  70.0017  55.4608 0002918 260.2548  99.8282 14.98341983 69212,6950.156,96.106,574.049,569.993,0.0
55653.0,STARLINK-5067,PAYLOAD,2024-05-15 22:49:25,14.98342079,0.000288,70.0014,55.2926,263.1952,96.8879,-0.00018924,-2.351e-05,0.0,0 STARLINK-5067,1 55653U 23021AB  24136.95098997 -.00002351  00000-0 -18924-3 0  9994,2 55653  70.0014  55.2926 0002880 263.1952  96.8879 14.98342079 69529,6950.156,96.106,574.022,570.019,0.0
